start=new Date('2023-02-18T00:00:00.000Z').valueOf();
sats=[{"MEAN_ELEMENT_THEORY":"SGP4","SEMIMAJOR_AXIS":"6917.971","CLASSIFICATION_TYPE":"U","ARG_OF_PERICENTER":"94.2224","MEAN_MOTION_DOT":"-0.00004429","OBJECT_ID":"2022-136Q","INCLINATION":"53.2172","DECAY_DATE":null,"GP_ID":"225839474","COUNTRY_CODE":"US","RCS_SIZE":"LARGE","TLE_LINE2":"2 54065  53.2172 313.7280 0002232  94.2224 265.9023 15.08810193 18370","MEAN_MOTION_DDOT":"0.0000000000000","ECCENTRICITY":"0.00022320","TIME_SYSTEM":"UTC","CENTER_NAME":"EARTH","MEAN_MOTION":"15.08810193","FILE":"3804075","EPOCH":"2023-02-17T17:27:15.779808","OBJECT_TYPE":"PAYLOAD","ELEMENT_SET_NO":"999","PERIOD":"95.439","LAUNCH_DATE":"2022-10-20","MEAN_ANOMALY":"265.9023","REV_AT_EPOCH":"1837","REF_FRAME":"TEME","SITE":"AFETR","TLE_LINE1":"1 54065U 22136Q   23048.72726597 -.00004429  00000-0 -26056-3 0  9999","APOAPSIS":"541.381","PERIAPSIS":"538.292","BSTAR":"-0.00026056000000","RA_OF_ASC_NODE":"313.7280","OBJECT_NAME":"STARLINK-5187","EPHEMERIS_TYPE":"0","NORAD_CAT_ID":"54065"},{"CLASSIFICATION_TYPE":"U","ARG_OF_PERICENTER":"74.7983","MEAN_ELEMENT_THEORY":"SGP4","SEMIMAJOR_AXIS":"6917.830","INCLINATION":"53.2169","OBJECT_ID":"2022-136R","MEAN_MOTION_DOT":"0.00039185","COUNTRY_CODE":"US","RCS_SIZE":"LARGE","MEAN_MOTION_DDOT":"0.0000000000000","ECCENTRICITY":"0.00015420","TLE_LINE2":"2 54066  53.2169 313.7468 0001542  74.7983 285.3180 15.08856646 18376","GP_ID":"225840224","DECAY_DATE":null,"MEAN_MOTION":"15.08856646","FILE":"3804075","CENTER_NAME":"EARTH","TIME_SYSTEM":"UTC","PERIOD":"95.437","LAUNCH_DATE":"2022-10-20","ELEMENT_SET_NO":"999","EPOCH":"2023-02-17T17:32:35.173824","OBJECT_TYPE":"PAYLOAD","REF_FRAME":"TEME","REV_AT_EPOCH":"1837","TLE_LINE1":"1 54066U 22136R   23048.73096266  .00039185  00000-0  24654-2 0  9990","SITE":"AFETR","MEAN_ANOMALY":"285.3180","PERIAPSIS":"538.628","APOAPSIS":"540.761","EPHEMERIS_TYPE":"0","OBJECT_NAME":"STARLINK-5151","NORAD_CAT_ID":"54066","BSTAR":"0.00246540000000","RA_OF_ASC_NODE":"313.7468"},{"ELEMENT_SET_NO":"999","OBJECT_TYPE":"PAYLOAD","EPOCH":"2023-02-17T17:16:39.010080","LAUNCH_DATE":"2022-10-20","PERIOD":"95.438","MEAN_ANOMALY":"259.6312","TLE_LINE1":"1 54067U 22136S   23048.71989595 -.00005130  00000-0 -30450-3 0  9992","SITE":"AFETR","REV_AT_EPOCH":"1837","REF_FRAME":"TEME","PERIAPSIS":"538.911","APOAPSIS":"540.606","RA_OF_ASC_NODE":"313.6781","BSTAR":"-0.00030450000000","NORAD_CAT_ID":"54067","EPHEMERIS_TYPE":"0","OBJECT_NAME":"STARLINK-5174","MEAN_ELEMENT_THEORY":"SGP4","SEMIMAJOR_AXIS":"6917.894","ARG_OF_PERICENTER":"100.4818","CLASSIFICATION_TYPE":"U","MEAN_MOTION_DOT":"-0.00005130","OBJECT_ID":"2022-136S","INCLINATION":"53.2174","GP_ID":"225838972","DECAY_DATE":null,"MEAN_MOTION_DDOT":"0.0000000000000","ECCENTRICITY":"0.00012250","TLE_LINE2":"2 54067  53.2174 313.6781 0001225 100.4818 259.6312 15.08835636 18379","COUNTRY_CODE":"US","RCS_SIZE":"LARGE","CENTER_NAME":"EARTH","TIME_SYSTEM":"UTC","FILE":"3804075","MEAN_MOTION":"15.08835636"},{"OBJECT_NAME":"STARLINK-5222","EPHEMERIS_TYPE":"0","NORAD_CAT_ID":"54068","BSTAR":"0.00096355000000","RA_OF_ASC_NODE":"314.8883","APOAPSIS":"540.697","PERIAPSIS":"538.926","REF_FRAME":"TEME","REV_AT_EPOCH":"1833","SITE":"AFETR","TLE_LINE1":"1 54068U 22136T   23048.45860824  .00015071  00000-0  96355-3 0  9996","MEAN_ANOMALY":"296.5318","PERIOD":"95.439","LAUNCH_DATE":"2022-10-20","EPOCH":"2023-02-17T11:00:23.751936","OBJECT_TYPE":"PAYLOAD","ELEMENT_SET_NO":"999","MEAN_MOTION":"15.08818266","FILE":"3802730","TIME_SYSTEM":"UTC","CENTER_NAME":"EARTH","RCS_SIZE":"LARGE","COUNTRY_CODE":"US","TLE_LINE2":"2 54068  53.2175 314.8883 0001280  63.5806 296.5318 15.08818266 18336","ECCENTRICITY":"0.00012800","MEAN_MOTION_DDOT":"0.0000000000000","DECAY_DATE":null,"GP_ID":"225782712","INCLINATION":"53.2175","OBJECT_ID":"2022-136T","MEAN_MOTION_DOT":"0.00015071","CLASSIFICATION_TYPE":"U","ARG_OF_PERICENTER":"63.5806","SEMIMAJOR_AXIS":"6917.947","MEAN_ELEMENT_THEORY":"SGP4"},{"COUNTRY_CODE":"US","RCS_SIZE":"LARGE","TLE_LINE2":"2 54069  53.2181 314.7972 0001592  68.9466 291.1697 15.08858687 18331","ECCENTRICITY":"0.00015920","MEAN_MOTION_DDOT":"0.0000000000000","DECAY_DATE":null,"GP_ID":"225783461","MEAN_MOTION":"15.08858687","FILE":"3802730","TIME_SYSTEM":"UTC","CENTER_NAME":"EARTH","CLASSIFICATION_TYPE":"U","ARG_OF_PERICENTER":"68.9466","MEAN_ELEMENT_THEORY":"SGP4","SEMIMAJOR_AXIS":"6917.823","INCLINATION":"53.2181","OBJECT_ID":"2022-136U","MEAN_MOTION_DOT":"0.00039075","APOAPSIS":"540.790","PERIAPSIS":"538.587","OBJECT_NAME":"STARLINK-5223","EPHEMERIS_TYPE":"0","NORAD_CAT_ID":"54069","BSTAR":"0.00245840000000","RA_OF_ASC_NODE":"314.7972","PERIOD":"95.436","LAUNCH_DATE":"2022-10-20","EPOCH":"2023-02-17T10:39:09.616320","OBJECT_TYPE":"PAYLOAD","ELEMENT_SET_NO":"999","REV_AT_EPOCH":"1833","REF_FRAME":"TEME","SITE":"AFETR","TLE_LINE1":"1 54069U 22136U   23048.44386130  .00039075  00000-0  24584-2 0  9993","MEAN_ANOMALY":"291.1697"},{"TIME_SYSTEM":"UTC","CENTER_NAME":"EARTH","FILE":"3804075","MEAN_MOTION":"15.08816881","GP_ID":"225839725","DECAY_DATE":null,"TLE_LINE2":"2 54070  53.2164 313.6584 0001602  90.3823 269.7352 15.08816881 18372","ECCENTRICITY":"0.00016020","MEAN_MOTION_DDOT":"0.0000000000000","RCS_SIZE":"LARGE","COUNTRY_CODE":"US","MEAN_MOTION_DOT":"-0.00002792","INCLINATION":"53.2164","OBJECT_ID":"2022-136V","MEAN_ELEMENT_THEORY":"SGP4","SEMIMAJOR_AXIS":"6917.951","ARG_OF_PERICENTER":"90.3823","CLASSIFICATION_TYPE":"U","RA_OF_ASC_NODE":"313.6584","BSTAR":"-0.00015746000000","NORAD_CAT_ID":"54070","OBJECT_NAME":"STARLINK-5181","EPHEMERIS_TYPE":"0","APOAPSIS":"540.924","PERIAPSIS":"538.708","MEAN_ANOMALY":"269.7352","SITE":"AFETR","TLE_LINE1":"1 54070U 22136V   23048.71716186 -.00002792  00000-0 -15746-3 0  9992","REV_AT_EPOCH":"1837","REF_FRAME":"TEME","EPOCH":"2023-02-17T17:12:42.784704","OBJECT_TYPE":"PAYLOAD","ELEMENT_SET_NO":"999","LAUNCH_DATE":"2022-10-20","PERIOD":"95.439"},{"TLE_LINE1":"1 54071U 22136W   23048.71252064 -.00002877  00000-0 -16285-3 0  9996","SITE":"AFETR","REV_AT_EPOCH":"1837","REF_FRAME":"TEME","MEAN_ANOMALY":"291.2491","LAUNCH_DATE":"2022-10-20","PERIOD":"95.439","ELEMENT_SET_NO":"999","EPOCH":"2023-02-17T17:06:01.783296","OBJECT_TYPE":"PAYLOAD","NORAD_CAT_ID":"54071","EPHEMERIS_TYPE":"0","OBJECT_NAME":"STARLINK-5168","RA_OF_ASC_NODE":"313.6283","BSTAR":"-0.00016285000000","PERIAPSIS":"538.531","APOAPSIS":"541.110","INCLINATION":"53.2165","OBJECT_ID":"2022-136W","MEAN_MOTION_DOT":"-0.00002877","ARG_OF_PERICENTER":"68.8701","CLASSIFICATION_TYPE":"U","MEAN_ELEMENT_THEORY":"SGP4","SEMIMAJOR_AXIS":"6917.956","FILE":"3804075","MEAN_MOTION":"15.08815422","CENTER_NAME":"EARTH","TIME_SYSTEM":"UTC","MEAN_MOTION_DDOT":"0.0000000000000","ECCENTRICITY":"0.00018640","TLE_LINE2":"2 54071  53.2165 313.6283 0001864  68.8701 291.2491 15.08815422 18379","RCS_SIZE":"LARGE","COUNTRY_CODE":"US","GP_ID":"225838473","DECAY_DATE":null},{"ELEMENT_SET_NO":"999","OBJECT_TYPE":"PAYLOAD","EPOCH":"2023-02-17T17:11:20.338368","LAUNCH_DATE":"2022-10-20","PERIOD":"95.439","MEAN_ANOMALY":"305.1137","TLE_LINE1":"1 54072U 22136X   23048.71620762  .00006841  00000-0  44778-3 0  9992","SITE":"AFETR","REV_AT_EPOCH":"1837","REF_FRAME":"TEME","PERIAPSIS":"538.678","APOAPSIS":"540.963","RA_OF_ASC_NODE":"313.6582","BSTAR":"0.00044778000000","NORAD_CAT_ID":"54072","EPHEMERIS_TYPE":"0","OBJECT_NAME":"STARLINK-5144","MEAN_ELEMENT_THEORY":"SGP4","SEMIMAJOR_AXIS":"6917.956","ARG_OF_PERICENTER":"55.0010","CLASSIFICATION_TYPE":"U","MEAN_MOTION_DOT":"0.00006841","OBJECT_ID":"2022-136X","INCLINATION":"53.2152","DECAY_DATE":null,"GP_ID":"225839223","MEAN_MOTION_DDOT":"0.0000000000000","ECCENTRICITY":"0.00016520","TLE_LINE2":"2 54072  53.2152 313.6582 0001652  55.0010 305.1137 15.08815381 18370","RCS_SIZE":"LARGE","COUNTRY_CODE":"US","CENTER_NAME":"EARTH","TIME_SYSTEM":"UTC","FILE":"3804075","MEAN_MOTION":"15.08815381"},{"ECCENTRICITY":"0.00010970","MEAN_MOTION_DDOT":"0.0000000000000","TLE_LINE2":"2 54073  53.2179 308.3809 0001097 119.3192 240.7910 15.08845394 18461","RCS_SIZE":"LARGE","COUNTRY_CODE":"US","DECAY_DATE":null,"GP_ID":"225839475","FILE":"3804075","MEAN_MOTION":"15.08845394","CENTER_NAME":"EARTH","TIME_SYSTEM":"UTC","ARG_OF_PERICENTER":"119.3192","CLASSIFICATION_TYPE":"U","SEMIMAJOR_AXIS":"6917.864","MEAN_ELEMENT_THEORY":"SGP4","OBJECT_ID":"2022-136Y","INCLINATION":"53.2179","MEAN_MOTION_DOT":"0.00023822","PERIAPSIS":"538.970","APOAPSIS":"540.488","NORAD_CAT_ID":"54073","EPHEMERIS_TYPE":"0","OBJECT_NAME":"STARLINK-5146","RA_OF_ASC_NODE":"308.3809","BSTAR":"0.00150960000000","LAUNCH_DATE":"2022-10-20","PERIOD":"95.437","ELEMENT_SET_NO":"999","EPOCH":"2023-02-17T21:35:46.754016","OBJECT_TYPE":"PAYLOAD","TLE_LINE1":"1 54073U 22136Y   23048.89984669  .00023822  00000-0  15096-2 0  9999","SITE":"AFETR","REF_FRAME":"TEME","REV_AT_EPOCH":"1846","MEAN_ANOMALY":"240.7910"},{"PERIAPSIS":"538.856","APOAPSIS":"540.756","EPHEMERIS_TYPE":"0","OBJECT_NAME":"STARLINK-5192","NORAD_CAT_ID":"54074","BSTAR":"-0.00022658000000","RA_OF_ASC_NODE":"314.7692","PERIOD":"95.439","LAUNCH_DATE":"2022-10-20","ELEMENT_SET_NO":"999","OBJECT_TYPE":"PAYLOAD","EPOCH":"2023-02-17T10:33:51.947712","REV_AT_EPOCH":"1833","REF_FRAME":"TEME","TLE_LINE1":"1 54074U 22136Z   23048.44018458 -.00003890  00000-0 -22658-3 0  9993","SITE":"AFETR","MEAN_ANOMALY":"285.5275","RCS_SIZE":"LARGE","COUNTRY_CODE":"US","MEAN_MOTION_DDOT":"0.0000000000000","ECCENTRICITY":"0.00013730","TLE_LINE2":"2 54074  53.2172 314.7692 0001373  74.5869 285.5275 15.08820130 18334","GP_ID":"225784210","DECAY_DATE":null,"MEAN_MOTION":"15.08820130","FILE":"3802730","CENTER_NAME":"EARTH","TIME_SYSTEM":"UTC","CLASSIFICATION_TYPE":"U","ARG_OF_PERICENTER":"74.5869","MEAN_ELEMENT_THEORY":"SGP4","SEMIMAJOR_AXIS":"6917.941","INCLINATION":"53.2172","OBJECT_ID":"2022-136Z","MEAN_MOTION_DOT":"-0.00003890"}];
